NORAD_CAT_ID,OBJECT_NAME,OBJECT_TYPE,EPOCH,MEAN_MOTION,ECCENTRICITY,INCLINATION,RA_OF_ASC_NODE,ARG_OF_PERICENTER,MEAN_ANOMALY,BSTAR,MEAN_MOTION_DOT,MEAN_MOTION_DDOT,TLE_LINE0,TLE_LINE1,TLE_LINE2,SEMIMAJOR_AXIS,PERIOD,APOGEE,PERIGEE,DECAYED
55746.0,STARLINK-5579,PAYLOAD,2023-09-01 13:18:24,14.98329136,0.000313,69.9991,44.4134,271.154,88.926,1.9434e-05,1.39e-06,0.0,0 STARLINK-5579,1 55746U 23028F   23244.55445000  .00000139  00000-0  19434-4 0  9998,2 55746  69.9991  44.4134 0003130 271.1540  88.9260 14.98329136 28211,6950.196,96.107,574.236,569.885,0.0
55746.0,STARLINK-5579,PAYLOAD,2023-09-02 10:08:09,14.98327342,0.0003033,69.9991,42.2257,271.3569,88.7242,-8.0546e-07,-1.03e-06,0.0,0 STARLINK-5579,1 55746U 23028F   23245.42233082 -.00000103  00000-0 -80546-6 0  9997,2 55746  69.9991  42.2257 0003033 271.3569  88.7242 14.98327342 28347,6950.201,96.107,574.174,569.958,0.0
55746.0,STARLINK-5579,PAYLOAD,2023-09-02 13:20:25,14.9832676,0.0003018,69.9991,41.8891,271.595,88.4863,1.5849e-05,9.6e-07,0.0,0 STARLINK-5579,1 55746U 23028F   23245.55585092  .00000096  00000-0  15849-4 0  9993,2 55746  69.9991  41.8891 0003018 271.5950  88.4863 14.98326760 28366,6950.203,96.107,574.165,569.97,0.0
55746.0,STARLINK-5579,PAYLOAD,2023-09-02 19:44:57,14.98346165,0.000296,69.9998,41.2157,274.2831,85.799,-0.00023839,-2.937e-05,0.0,0 STARLINK-5579,1 55746U 23028F   23245.82288455 -.00002937  00000-0 -23839-3 0  9991,2 55746  69.9998  41.2157 0002960 274.2831  85.7990 14.98346165 28402,6950.143,96.106,574.065,569.951,0.0
55746.0,STARLINK-5579,PAYLOAD,2023-09-03 11:46:18,14.98300057,0.0003026,70.0002,39.5327,270.4764,89.6048,0.0005153,6.056e-05,0.0,0 STARLINK-5579,1 55746U 23028F   23246.49049668  .00006056  00000-0  51530-3 0  9999,2 55746  70.0002  39.5327 0003026 270.4764  89.6048 14.98300057 28505,6950.285,96.109,574.254,570.047,0.0
55746.0,STARLINK-5579,PAYLOAD,2023-09-03 16:34:42,14.98331305,0.0002931,70.0002,39.0278,270.6079,89.4744,-4.2358e-06,-1.44e-06,0.0,0 STARLINK-5579,1 55746U 23028F   23246.69076791 -.00000144  00000-0 -42358-5 0  9992,2 55746  70.0002  39.0278 0002931 270.6079  89.4744 14.98331305 28534,6950.189,96.107,574.091,570.017,0.0
55746.0,STARLINK-5579,PAYLOAD,2023-09-04 10:12:11,14.98325543,0.0002913,70.0003,37.1758,271.003,89.0795,-4.876e-05,-6.75e-06,0.0,0 STARLINK-5579,1 55746U 23028F   23247.42513315 -.00000675  00000-0 -48760-4 0  9993,2 55746  70.0003  37.1758 0002913 271.0030  89.0795 14.98325543 28640,6950.207,96.107,574.096,570.047,0.0
55746.0,STARLINK-5579,PAYLOAD,2023-09-04 11:48:19,14.9832509,0.0003024,70.0003,37.0074,270.2335,89.8478,-1.6171e-05,-2.86e-06,0.0,0 STARLINK-5579,1 55746U 23028F   23247.49189220 -.00000286  00000-0 -16171-4 0  9993,2 55746  70.0003  37.0074 0003024 270.2335  89.8478 14.98325090 28657,6950.208,96.107,574.175,569.971,0.0
55746.0,STARLINK-5579,PAYLOAD,2023-09-04 19:48:59,14.98326876,0.0002965,70.0007,36.1659,268.8497,91.2322,-1.313e-05,-2.5e-06,0.0,0 STARLINK-5579,1 55746U 23028F   23247.82569173 -.00000250  00000-0 -13130-4 0  9992,2 55746  70.0007  36.1659 0002965 268.8497  91.2322 14.98326876 28709,6950.203,96.107,574.128,570.007,0.0
55746.0,STARLINK-5579,PAYLOAD,2023-09-06 10:16:12,14.98331385,0.0003129,70.0008,32.126,269.8288,90.2512,7.8543e-05,8.44e-06,0.0,0 STARLINK-5579,1 55746U 23028F   23249.42792525  .00000844  00000-0  78543-4 0  9995,2 55746  70.0008  32.1260 0003129 269.8288  90.2512 14.98331385 28943,6950.189,96.107,574.228,569.879,0.0
55746.0,STARLINK-5579,PAYLOAD,2023-09-06 13:28:28,14.98331733,0.0003166,70.0,31.7885,268.2875,91.7922,8.709e-05,9.46e-06,0.0,0 STARLINK-5579,1 55746U 23028F   23249.56144435  .00000946  00000-0  87090-4 0  9991,2 55746  70.0000  31.7885 0003166 268.2875  91.7922 14.98331733 28969,6950.188,96.107,574.253,569.852,0.0
55746.0,STARLINK-5579,PAYLOAD,2023-09-06 19:53:01,14.98323764,0.0002204,70.0001,31.1148,256.3222,103.7692,0.00028481,3.306e-05,0.0,0 STARLINK-5579,1 55746U 23028F   23249.82848514  .00003306  00000-0  28481-3 0  9990,2 55746  70.0001  31.1148 0002204 256.3222 103.7692 14.98323764 29001,6950.212,96.107,573.609,570.545,0.0
55746.0,STARLINK-5579,PAYLOAD,2023-09-07 02:17:33,14.98325177,0.0003275,70.0001,30.4423,273.6176,86.4609,-6.5055e-05,-8.69e-06,0.0,0 STARLINK-5579,1 55746U 23028F   23250.09553107 -.00000869  00000-0 -65055-4 0  9994,2 55746  70.0001  30.4423 0003275 273.6176  86.4609 14.98325177 29047,6950.208,96.107,574.349,569.797,0.0
55746.0,STARLINK-5579,PAYLOAD,2023-09-07 11:54:22,14.98329021,0.0003149,70.0001,29.4319,268.5652,91.5146,-6.2443e-05,-8.38e-06,0.0,0 STARLINK-5579,1 55746U 23028F   23250.49608898 -.00000838  00000-0 -62443-4 0  9990,2 55746  70.0001  29.4319 0003149 268.5652  91.5146 14.98329021 29103,6950.196,96.107,574.25,569.872,0.0
55746.0,STARLINK-5579,PAYLOAD,2023-09-07 19:55:02,14.98332831,0.0003156,70.0001,28.5903,268.8231,91.2566,-1.6347e-05,-2.88e-06,0.0,0 STARLINK-5579,1 55746U 23028F   23250.82988511 -.00000288  00000-0 -16347-4 0  9991,2 55746  70.0001  28.5903 0003156 268.8231  91.2566 14.98332831 29157,6950.184,96.107,574.243,569.856,0.0
55746.0,STARLINK-5579,PAYLOAD,2023-09-08 13:32:30,14.98333185,0.0003167,70.0002,26.7389,268.5147,91.565,-1.6349e-05,-2.88e-06,0.0,0 STARLINK-5579,1 55746U 23028F   23251.56424400 -.00000288  00000-0 -16349-4 0  9997,2 55746  70.0002  26.7389 0003167 268.5147  91.5650 14.98333185 29263,6950.183,96.107,574.249,569.847,0.0
55746.0,STARLINK-5579,PAYLOAD,2023-09-08 18:20:54,14.98336442,0.0003173,70.0003,26.2339,269.0178,91.0617,2.0942e-05,1.57e-06,0.0,0 STARLINK-5579,1 55746U 23028F   23251.76452040  .00000157  00000-0  20942-4 0  9997,2 55746  70.0003  26.2339 0003173 269.0178  91.0617 14.98336442 29291,6950.173,96.107,574.243,569.833,0.0
55746.0,STARLINK-5579,PAYLOAD,2023-09-09 10:22:16,14.98319321,0.0003165,70.0004,24.551,268.5911,91.4886,-4.9759e-06,-1.52e-06,0.0,0 STARLINK-5579,1 55746U 23028F   23252.43213150 -.00000152  00000-0 -49759-5 0  9994,2 55746  70.0004  24.5510 0003165 268.5911  91.4886 14.98319321 29394,6950.226,96.108,574.291,569.891,0.0
55746.0,STARLINK-5579,PAYLOAD,2023-09-09 13:34:32,14.98323401,0.0003103,70.0004,24.2141,269.4327,90.6477,1.5307e-05,9e-07,0.0,0 STARLINK-5579,1 55746U 23028F   23252.56564910  .00000090  00000-0  15307-4 0  9991,2 55746  70.0004  24.2141 0003103 269.4327  90.6477 14.98323401 29418,6950.213,96.107,574.235,569.922,0.0
55746.0,STARLINK-5579,PAYLOAD,2023-09-09 18:22:56,14.98327839,0.0003055,70.0005,23.7091,268.2943,91.7866,3.0907e-05,2.76e-06,0.0,0 STARLINK-5579,1 55746U 23028F   23252.76592620  .00000276  00000-0  30907-4 0  9991,2 55746  70.0005  23.7091 0003055 268.2943  91.7866 14.98327839 29440,6950.2,96.107,574.188,569.941,0.0
55746.0,STARLINK-5579,PAYLOAD,2023-09-10 13:36:32,14.98330657,0.0003142,70.0008,21.6898,270.1653,89.9146,3.0673e-05,2.73e-06,0.0,0 STARLINK-5579,1 55746U 23028F   23253.56704424  .00000273  00000-0  30673-4 0  9994,2 55746  70.0008  21.6898 0003142 270.1653  89.9146 14.98330657 29567,6950.191,96.107,574.24,569.872,0.0
55746.0,STARLINK-5579,PAYLOAD,2023-09-10 18:24:56,14.98334288,0.0003072,70.0011,21.1848,268.2447,91.836,6.2844e-05,6.57e-06,0.0,0 STARLINK-5579,1 55746U 23028F   23253.76732071  .00000657  00000-0  62844-4 0  9996,2 55746  70.0011  21.1848 0003072 268.2447  91.8360 14.98334288 29599,6950.18,96.107,574.18,569.91,0.0
55746.0,STARLINK-5579,PAYLOAD,2023-09-11 10:26:17,14.98324142,0.000299,70.0015,19.5013,269.9203,90.1613,4.7578e-05,4.75e-06,0.0,0 STARLINK-5579,1 55746U 23028F   23254.43492714  .00000475  00000-0  47578-4 0  9993,2 55746  70.0015  19.5013 0002990 269.9203  90.1613 14.98324142 29696,6950.211,96.107,574.154,569.998,0.0
55746.0,STARLINK-5579,PAYLOAD,2023-09-11 13:38:33,14.98327591,0.0003074,70.0014,19.1645,270.2758,89.8049,9.756e-06,2.3e-07,0.0,0 STARLINK-5579,1 55746U 23028F   23254.56844612  .00000023  00000-0  97560-5 0  9991,2 55746  70.0014  19.1645 0003074 270.2758  89.8049 14.98327591 29718,6950.2,96.107,574.202,569.929,0.0
55746.0,STARLINK-5579,PAYLOAD,2023-09-11 20:03:05,14.98334472,0.0003061,70.0014,18.4914,270.6175,89.4633,8.1174e-05,8.76e-06,0.0,0 STARLINK-5579,1 55746U 23028F   23254.83547972  .00000876  00000-0  81174-4 0  9999,2 55746  70.0014  18.4914 0003061 270.6175  89.4633 14.98334472 29757,6950.179,96.107,574.172,569.917,0.0
55746.0,STARLINK-5579,PAYLOAD,2023-09-12 10:28:18,14.98329153,0.0002996,70.0016,16.9769,271.4617,88.6199,-3.4893e-05,-5.09e-06,0.0,0 STARLINK-5579,1 55746U 23028F   23255.43632569 -.00000509  00000-0 -34893-4 0  9994,2 55746  70.0016  16.9769 0002996 271.4617  88.6199 14.98329153 29844,6950.196,96.107,574.143,569.978,0.0
55746.0,STARLINK-5579,PAYLOAD,2023-09-12 12:04:26,14.98332508,0.0002737,70.002,16.8077,274.7101,85.3745,-1.6405e-06,-1.13e-06,0.0,0 STARLINK-5579,1 55746U 23028F   23255.50308311 -.00000113  00000-0 -16405-5 0  9998,2 55746  70.0020  16.8077 0002737 274.7101  85.3745 14.98332508 29857,6950.185,96.107,573.952,570.148,0.0
55746.0,STARLINK-5579,PAYLOAD,2023-09-12 16:52:50,14.98334776,0.0002698,70.0023,16.3047,271.2103,88.8747,2.5709e-05,2.14e-06,0.0,0 STARLINK-5579,1 55746U 23028F   23255.70336028  .00000214  00000-0  25709-4 0  9992,2 55746  70.0023  16.3047 0002698 271.2103  88.8747 14.98334776 29884,6950.178,96.107,573.918,570.168,0.0
55746.0,STARLINK-5579,PAYLOAD,2023-09-12 18:28:58,14.98337761,0.0002854,70.002,16.1361,273.635,86.4482,3.707e-05,3.49e-06,0.0,0 STARLINK-5579,1 55746U 23028F   23255.77011782  .00000349  00000-0  37070-4 0  9999,2 55746  70.0020  16.1361 0002854 273.6350  86.4482 14.98337761 29890,6950.169,96.107,574.017,570.05,0.0
55746.0,STARLINK-5579,PAYLOAD,2023-09-13 13:42:35,14.98323305,0.0002437,70.0018,14.1161,268.4009,91.6871,0.00027642,3.206e-05,0.0,0 STARLINK-5579,1 55746U 23028F   23256.57123970  .00003206  00000-0  27642-3 0  9999,2 55746  70.0018  14.1161 0002437 268.4009  91.6871 14.98323305 30018,6950.214,96.107,573.772,570.385,0.0
